{"type": "FeatureCollection", "features": [ {"type": "Feature", "properties": {"norad_id": 66484, "name": "STARLINK-35371", "group": "last-30-days", "lat": 42.885015373985105, "lon": 150.97003922801238, "alt_km": 409.1197433026764, "timestamp": "2025-12-13T15:35:10.875313+00:00", "meta": {"OBJECT_NAME": "STARLINK-35371", "OBJECT_ID": "2025-262AE", "EPOCH": "2025-12-12T16:01:32.219328", "MEAN_MOTION": 15.50574998, "ECCENTRICITY": 0.00014167, "INCLINATION": 43.0018, "RA_OF_ASC_NODE": 71.4158, "ARG_OF_PERICENTER": 278.2184, "MEAN_ANOMALY": 81.8515, "EPHEMERIS_TYPE": 0, "CLASSIFICATION_TYPE": "U", "NORAD_CAT_ID": 66484, "ELEMENT_SET_NO": 999, "REV_AT_EPOCH": 555, "BSTAR": 7.4960958e-05, "MEAN_MOTION_DOT": 4.058e-05, "MEAN_MOTION_DDOT": 0}, "tle": {"line1": "1 66484U 25262AE  25346.66773402  .00004058  00000+0  74961-4 0  9997", "line2": "2 66484  43.0018  71.4158 0001416 278.2184  81.8515 15.50574998  5552"}}, "geometry": {"type": "Point", "coordinates": [150.97003922801238, 42.885015373985105]}}, {"type": "Feature", "properties": {"norad_id": 66485, "name": "STARLINK-34774", "group": "last-30-days", "lat": -10.512220119552804, "lon": -48.343064557491196, "alt_km": 445.00099490798493, "timestamp": "2025-12-13T15:35:10.875323+00:00", "meta": {"OBJECT_NAME": "STARLINK-34774", "OBJECT_ID": "2025-263A", "EPOCH": "2025-12-12T20:00:01.999872", "MEAN_MOTION": 15.40639052, "ECCENTRICITY": 0.00021578, "INCLINATION": 43.0005, "RA_OF_ASC_NODE": 124.8753, "ARG_OF_PERICENTER": 299.7991, "MEAN_ANOMALY": 43.7258, "EPHEMERIS_TYPE": 0, "CLASSIFICATION_TYPE": "U", "NORAD_CAT_ID": 66485, "ELEMENT_SET_NO": 999, "REV_AT_EPOCH": 565, "BSTAR": 0.0035956454, "MEAN_MOTION_DOT": 0.0015263, "MEAN_MOTION_DDOT": 0}, "tle": {"line1": "1 66485U 25263A   25346.83335648  .00152630  00000+0  35956-2 0  9993", "line2": "2 66485  43.0005 124.8753 0002157 299.7991  43.7258 15.40639052  5654"}}, "geometry": {"type": "Point", "coordinates": [-48.343064557491196, -10.512220119552804]}}, {"type": "Feature", "properties": {"norad_id": 66486, "name": "STARLINK-34844", "group": "last-30-days", "lat": -21.01150374044727, "lon": 95.501211479066, "alt_km": 415.44716956892535, "timestamp": "2025-12-13T15:35:10.875334+00:00", "meta": {"OBJECT_NAME": "STARLINK-34844", "OBJECT_ID": "2025-263B", "EPOCH": "2025-12-12T18:04:51.581856", "MEAN_MOTION": 15.50610983, "ECCENTRICITY": 0.00035451, "INCLINATION": 43, "RA_OF_ASC_NODE": 125.0869, "ARG_OF_PERICENTER": 256.707, "MEAN_ANOMALY": 103.3395, "EPHEMERIS_TYPE": 0, "CLASSIFICATION_TYPE": "U", "NORAD_CAT_ID": 66486, "ELEMENT_SET_NO": 999, "REV_AT_EPOCH": 551, "BSTAR": 0.0017533751, "MEAN_MOTION_DOT": 0.00104031, "MEAN_MOTION_DDOT": 0}, "tle": {"line1": "1 66486U 25263B   25346.75337479  .00104031  00000+0  17534-2 0  9993", "line2": "2 66486  43.0000 125.0869 0003545 256.7070 103.3395 15.50610983  5517"}}, "geometry": {"type": "Point", "coordinates": [95.501211479066, -21.01150374044727]}}, {"type": "Feature", "properties": {"norad_id": 66487, "name": "STARLINK-34733", "group": "last-30-days", "lat": -41.73917128097424, "lon": 46.73508697102593, "alt_km": 447.8074615273954, "timestamp": "2025-12-13T15:35:10.875344+00:00", "meta": {"OBJECT_NAME": "STARLINK-34733", "OBJECT_ID": "2025-263C", "EPOCH": "2025-12-12T20:00:01.999872", "MEAN_MOTION": 15.43222521, "ECCENTRICITY": 0.00014741, "INCLINATION": 42.9998, "RA_OF_ASC_NODE": 124.6705, "ARG_OF_PERICENTER": 279.3579, "MEAN_ANOMALY": 148.562, "EPHEMERIS_TYPE": 0, "CLASSIFICATION_TYPE": "U", "NORAD_CAT_ID": 66487, "ELEMENT_SET_NO": 999, "REV_AT_EPOCH": 565, "BSTAR": -0.044122351, "MEAN_MOTION_DOT": -0.01808202, "MEAN_MOTION_DDOT": 0}, "tle": {"line1": "1 66487U 25263C   25346.83335648 -.01808202  00000+0 -44122-1 0  9995", "line2": "2 66487  42.9998 124.6705 0001474 279.3579 148.5620 15.43222521  5656"}}, "geometry": {"type": "Point", "coordinates": [46.73508697102593, -41.73917128097424]}}, {"type": "Feature", "properties": {"norad_id": 66488, "name": "STARLINK-35515", "group": "last-30-days", "lat": -18.598024924524427, "lon": 98.66449160058622, "alt_km": 415.43802139933723, "timestamp": "2025-12-13T15:35:10.875354+00:00", "meta": {"OBJECT_NAME": "STARLINK-35515", "OBJECT_ID": "2025-263D", "EPOCH": "2025-12-12T18:03:52.675200", "MEAN_MOTION": 15.50621781, "ECCENTRICITY": 0.00017843, "INCLINATION": 42.9981, "RA_OF_ASC_NODE": 125.082, "ARG_OF_PERICENTER": 275.9827, "MEAN_ANOMALY": 84.083, "EPHEMERIS_TYPE": 0, "CLASSIFICATION_TYPE": "U", "NORAD_CAT_ID": 66488, "ELEMENT_SET_NO": 999, "REV_AT_EPOCH": 556, "BSTAR": 0.001731538, "MEAN_MOTION_DOT": 0.0010274, "MEAN_MOTION_DDOT": 0}, "tle": {"line1": "1 66488U 25263D   25346.75269300  .00102740  00000+0  17315-2 0  9994", "line2": "2 66488  42.9981 125.0820 0001784 275.9827  84.0830 15.50621781  5560"}}, "geometry": {"type": "Point", "coordinates": [98.66449160058622, -18.598024924524427]}}, {"type": "Feature", "properties": {"norad_id": 66489, "name": "STARLINK-35696", "group": "last-30-days", "lat": -17.418146141539435, "lon": 100.15496974401104, "alt_km": 415.5356362369321, "timestamp": "2025-12-13T15:35:10.875364+00:00", "meta": {"OBJECT_NAME": "STARLINK-35696", "OBJECT_ID": "2025-263E", "EPOCH": "2025-12-12T18:03:23.393376", "MEAN_MOTION": 15.5059305, "ECCENTRICITY": 0.00016481, "INCLINATION": 42.9983, "RA_OF_ASC_NODE": 125.0801, "ARG_OF_PERICENTER": 268.6341, "MEAN_ANOMALY": 91.4331, "EPHEMERIS_TYPE": 0, "CLASSIFICATION_TYPE": "U", "NORAD_CAT_ID": 66489, "ELEMENT_SET_NO": 999, "REV_AT_EPOCH": 556, "BSTAR": 0.0019955256, "MEAN_MOTION_DOT": 0.00118575, "MEAN_MOTION_DDOT": 0}, "tle": {"line1": "1 66489U 25263E   25346.75235409  .00118575  00000+0  19955-2 0  9993", "line2": "2 66489  42.9983 125.0801 0001648 268.6341  91.4331 15.50593050  5566"}}, "geometry": {"type": "Point", "coordinates": [100.15496974401104, -17.418146141539435]}}, {"type": "Feature", "properties": {"norad_id": 66490, "name": "STARLINK-35693", "group": "last-30-days", "lat": -38.150779577311816, "lon": -2.492597031184779, "alt_km": 446.54862464114467, "timestamp": "2025-12-13T15:35:10.875374+00:00", "meta": {"OBJECT_NAME": "STARLINK-35693", "OBJECT_ID": "2025-263F", "EPOCH": "2025-12-12T20:00:01.999872", "MEAN_MOTION": 15.40603969, "ECCENTRICITY": 0.00013504, "INCLINATION": 42.9995, "RA_OF_ASC_NODE": 124.7538, "ARG_OF_PERICENTER": 308.5418, "MEAN_ANOMALY": 84.6352, "EPHEMERIS_TYPE": 0, "CLASSIFICATION_TYPE": "U", "NORAD_CAT_ID": 66490, "ELEMENT_SET_NO": 999, "REV_AT_EPOCH": 565, "BSTAR": 0.0030030335, "MEAN_MOTION_DOT": 0.00126841, "MEAN_MOTION_DDOT": 0}, "tle": {"line1": "1 66490U 25263F   25346.83335648  .00126841  00000+0  30030-2 0  9992", "line2": "2 66490  42.9995 124.7538 0001350 308.5418  84.6352 15.40603969  5650"}}, "geometry": {"type": "Point", "coordinates": [-2.492597031184779, -38.150779577311816]}}, {"type": "Feature", "properties": {"norad_id": 66491, "name": "STARLINK-35663", "group": "last-30-days", "lat": -13.678339116577806, "lon": 104.67448490291594, "alt_km": 414.66185431446047, "timestamp": "2025-12-13T15:35:10.875385+00:00", "meta": {"OBJECT_NAME": "STARLINK-35663", "OBJECT_ID": "2025-263G", "EPOCH": "2025-12-12T18:01:55.795008", "MEAN_MOTION": 15.50630115, "ECCENTRICITY": 0.00015407, "INCLINATION": 42.9981, "RA_OF_ASC_NODE": 125.0709, "ARG_OF_PERICENTER": 327.4704, "MEAN_ANOMALY": 32.6061, "EPHEMERIS_TYPE": 0, "CLASSIFICATION_TYPE": "U", "NORAD_CAT_ID": 66491, "ELEMENT_SET_NO": 999, "REV_AT_EPOCH": 556, "BSTAR": 0.0018199012, "MEAN_MOTION_DOT": 0.00108107, "MEAN_MOTION_DDOT": 0}, "tle": {"line1": "1 66491U 25263G   25346.75134022  .00108107  00000+0  18199-2 0  9994", "line2": "2 66491  42.9981 125.0709 0001540 327.4704  32.6061 15.50630115  5563"}}, "geometry": {"type": "Point", "coordinates": [104.67448490291594, -13.678339116577806]}}, {"type": "Feature", "properties": {"norad_id": 66492, "name": "STARLINK-35673", "group": "last-30-days", "lat": -26.21127445014932, "lon": -28.0000420927737, "alt_km": 445.5553488264459, "timestamp": "2025-12-13T15:35:10.875395+00:00", "meta": {"OBJECT_NAME": "STARLINK-35673", "OBJECT_ID": "2025-263H", "EPOCH": "2025-12-12T20:00:01.999872", "MEAN_MOTION": 15.40622711, "ECCENTRICITY": 0.00014263, "INCLINATION": 43, "RA_OF_ASC_NODE": 124.8129, "ARG_OF_PERICENTER": 276.376, "MEAN_ANOMALY": 92.0744, "EPHEMERIS_TYPE": 0, "CLASSIFICATION_TYPE": "U", "NORAD_CAT_ID": 66492, "ELEMENT_SET_NO": 999, "REV_AT_EPOCH": 565, "BSTAR": 0.0034844785, "MEAN_MOTION_DOT": 0.00147724, "MEAN_MOTION_DDOT": 0}, "tle": {"line1": "1 66492U 25263H   25346.83335648  .00147724  00000+0  34845-2 0  9995", "line2": "2 66492  43.0000 124.8129 0001426 276.3760  92.0744 15.40622711  5658"}}, "geometry": {"type": "Point", "coordinates": [-28.0000420927737, -26.21127445014932]}}, {"type": "Feature", "properties": {"norad_id": 66493, "name": "STARLINK-35597", "group": "last-30-days", "lat": -11.123550244907747, "lon": 107.6229591331166, "alt_km": 414.96153310095633, "timestamp": "2025-12-13T15:35:10.875405+00:00", "meta": {"OBJECT_NAME": "STARLINK-35597", "OBJECT_ID": "2025-263J", "EPOCH": "2025-12-12T18:00:54.953856", "MEAN_MOTION": 15.50614629, "ECCENTRICITY": 0.00018758, "INCLINATION": 42.9974, "RA_OF_ASC_NODE": 125.0647, "ARG_OF_PERICENTER": 274.0009, "MEAN_ANOMALY": 86.0637, "EPHEMERIS_TYPE": 0, "CLASSIFICATION_TYPE": "U", "NORAD_CAT_ID": 66493, "ELEMENT_SET_NO": 999, "REV_AT_EPOCH": 556, "BSTAR": 0.0016305797, "MEAN_MOTION_DOT": 0.0009663, "MEAN_MOTION_DDOT": 0}, "tle": {"line1": "1 66493U 25263J   25346.75063604  .00096630  00000+0  16306-2 0  9998", "line2": "2 66493  42.9974 125.0647 0001875 274.0009  86.0637 15.50614629  5568"}}, "geometry": {"type": "Point", "coordinates": [107.6229591331166, -11.123550244907747]}}]}